{"type": "FeatureCollection", "features": [ {"type": "Feature", "properties": {"norad_id": 38779, "name": "GSAT-10 (GAGAN/PRN 128)", "group": "gnss", "lat": -4.7884314774476454e-05, "lon": -74.35870357062035, "alt_km": 35795.708778036285, "timestamp": "2025-12-20T07:33:51.055688+00:00", "meta": {"OBJECT_NAME": "GSAT-10 (GAGAN/PRN 128)", "OBJECT_ID": "2012-051B", "EPOCH": "2025-12-19T20:14:11.961600", "MEAN_MOTION": 1.00272348, "ECCENTRICITY": 0.00024284, "INCLINATION": 0.0744, "RA_OF_ASC_NODE": 264.9342, "ARG_OF_PERICENTER": 218.8002, "MEAN_ANOMALY": 351.5293, "EPHEMERIS_TYPE": 0, "CLASSIFICATION_TYPE": "U", "NORAD_CAT_ID": 38779, "ELEMENT_SET_NO": 999, "REV_AT_EPOCH": 4830, "BSTAR": 0, "MEAN_MOTION_DOT": -1.41e-06, "MEAN_MOTION_DDOT": 0}, "tle": {"line1": "1 38779U 12051B   25353.84319400 -.00000141  00000+0  00000+0 0  9995", "line2": "2 38779   0.0744 264.9342 0002428 218.8002 351.5293  1.00272348 48308"}}, "geometry": {"type": "Point", "coordinates": [-74.35870357062035, -4.7884314774476454e-05]}}, {"type": "Feature", "properties": {"norad_id": 38833, "name": "GPS BIIF-3  (PRN 24)", "group": "gnss", "lat": -8.540074706077991, "lon": 144.543920705207, "alt_km": 20053.025716582946, "timestamp": "2025-12-20T07:33:51.055700+00:00", "meta": {"OBJECT_NAME": "GPS BIIF-3  (PRN 24)", "OBJECT_ID": "2012-053A", "EPOCH": "2025-12-19T07:58:55.415712", "MEAN_MOTION": 2.0056508, "ECCENTRICITY": 0.0176, "INCLINATION": 53.559, "RA_OF_ASC_NODE": 150.9686, "ARG_OF_PERICENTER": 64.0969, "MEAN_ANOMALY": 297.6893, "EPHEMERIS_TYPE": 0, "CLASSIFICATION_TYPE": "U", "NORAD_CAT_ID": 38833, "ELEMENT_SET_NO": 999, "REV_AT_EPOCH": 9583, "BSTAR": 0, "MEAN_MOTION_DOT": 5.7e-07, "MEAN_MOTION_DDOT": 0}, "tle": {"line1": "1 38833U 12053A   25353.33258583  .00000057  00000+0  00000+0 0  9991", "line2": "2 38833  53.5590 150.9686 0176000  64.0969 297.6893  2.00565080 95832"}}, "geometry": {"type": "Point", "coordinates": [144.543920705207, -8.540074706077991]}}, {"type": "Feature", "properties": {"norad_id": 38857, "name": "GSAT0103 (GALILEO-FM3)", "group": "gnss", "lat": -20.96561835721717, "lon": -58.405074213018594, "alt_km": 23221.34012638852, "timestamp": "2025-12-20T07:33:51.055712+00:00", "meta": {"OBJECT_NAME": "GSAT0103 (GALILEO-FM3)", "OBJECT_ID": "2012-055A", "EPOCH": "2025-12-18T05:17:11.481792", "MEAN_MOTION": 1.70473412, "ECCENTRICITY": 0.00028558, "INCLINATION": 55.6954, "RA_OF_ASC_NODE": 106.5161, "ARG_OF_PERICENTER": 269.0808, "MEAN_ANOMALY": 90.8455, "EPHEMERIS_TYPE": 0, "CLASSIFICATION_TYPE": "U", "NORAD_CAT_ID": 38857, "ELEMENT_SET_NO": 999, "REV_AT_EPOCH": 8192, "BSTAR": 0, "MEAN_MOTION_DOT": -7e-08, "MEAN_MOTION_DDOT": 0}, "tle": {"line1": "1 38857U 12055A   25352.22027178 -.00000007  00000+0  00000+0 0  9996", "line2": "2 38857  55.6954 106.5161 0002855 269.0808  90.8455  1.70473412 81920"}}, "geometry": {"type": "Point", "coordinates": [-58.405074213018594, -20.96561835721717]}}, {"type": "Feature", "properties": {"norad_id": 38953, "name": "BEIDOU-2 G6 (C02)", "group": "gnss", "lat": -2.070430269739768, "lon": -73.59532308130395, "alt_km": 35781.914153504054, "timestamp": "2025-12-20T07:33:51.055723+00:00", "meta": {"OBJECT_NAME": "BEIDOU-2 G6 (C02)", "OBJECT_ID": "2012-059A", "EPOCH": "2025-12-19T19:55:47.653824", "MEAN_MOTION": 1.00269116, "ECCENTRICITY": 0.00082259, "INCLINATION": 3.9664, "RA_OF_ASC_NODE": 75.4373, "ARG_OF_PERICENTER": 292.2624, "MEAN_ANOMALY": 103.8748, "EPHEMERIS_TYPE": 0, "CLASSIFICATION_TYPE": "U", "NORAD_CAT_ID": 38953, "ELEMENT_SET_NO": 999, "REV_AT_EPOCH": 4811, "BSTAR": 0, "MEAN_MOTION_DOT": -1.53e-06, "MEAN_MOTION_DDOT": 0}, "tle": {"line1": "1 38953U 12059A   25353.83041266 -.00000153  00000+0  00000+0 0  9991", "line2": "2 38953   3.9664  75.4373 0008225 292.2624 103.8748  1.00269116 48112"}}, "geometry": {"type": "Point", "coordinates": [-73.59532308130395, -2.070430269739768]}}, {"type": "Feature", "properties": {"norad_id": 38977, "name": "LUCH 5B (SDCM/PRN 125)", "group": "gnss", "lat": 7.177087467804023, "lon": -173.33117574235487, "alt_km": 35771.244831054486, "timestamp": "2025-12-20T07:33:51.055738+00:00", "meta": {"OBJECT_NAME": "LUCH 5B (SDCM/PRN 125)", "OBJECT_ID": "2012-061A", "EPOCH": "2025-12-19T09:45:48.040128", "MEAN_MOTION": 1.00272447, "ECCENTRICITY": 0.0006637, "INCLINATION": 10.0949, "RA_OF_ASC_NODE": 51.6423, "ARG_OF_PERICENTER": 195.0445, "MEAN_ANOMALY": 331.6899, "EPHEMERIS_TYPE": 0, "CLASSIFICATION_TYPE": "U", "NORAD_CAT_ID": 38977, "ELEMENT_SET_NO": 999, "REV_AT_EPOCH": 4780, "BSTAR": 0, "MEAN_MOTION_DOT": -1.21e-06, "MEAN_MOTION_DDOT": 0}, "tle": {"line1": "1 38977U 12061A   25353.40680602 -.00000121  00000+0  00000+0 0  9991", "line2": "2 38977  10.0949  51.6423 0006637 195.0445 331.6899  1.00272447 47805"}}, "geometry": {"type": "Point", "coordinates": [-173.33117574235487, 7.177087467804023]}}, {"type": "Feature", "properties": {"norad_id": 39155, "name": "COSMOS 2485 (747)", "group": "gnss", "lat": 29.276907418792476, "lon": -115.28908219862744, "alt_km": 19118.193085009483, "timestamp": "2025-12-20T07:33:51.055750+00:00", "meta": {"OBJECT_NAME": "COSMOS 2485 (747)", "OBJECT_ID": "2013-019A", "EPOCH": "2025-12-18T17:09:02.655648", "MEAN_MOTION": 2.13103192, "ECCENTRICITY": 0.00247782, "INCLINATION": 65.3168, "RA_OF_ASC_NODE": 79.6661, "ARG_OF_PERICENTER": 230.0863, "MEAN_ANOMALY": 129.7189, "EPHEMERIS_TYPE": 0, "CLASSIFICATION_TYPE": "U", "NORAD_CAT_ID": 39155, "ELEMENT_SET_NO": 999, "REV_AT_EPOCH": 9843, "BSTAR": 0, "MEAN_MOTION_DOT": -3.5e-07, "MEAN_MOTION_DDOT": 0}, "tle": {"line1": "1 39155U 13019A   25352.71461407 -.00000035  00000+0  00000+0 0  9991", "line2": "2 39155  65.3168  79.6661 0024778 230.0863 129.7189  2.13103192 98432"}}, "geometry": {"type": "Point", "coordinates": [-115.28908219862744, 29.276907418792476]}}, {"type": "Feature", "properties": {"norad_id": 39166, "name": "GPS BIIF-4  (PRN 27)", "group": "gnss", "lat": 54.66951516913637, "lon": 5.993580399552473, "alt_km": 19897.46886964785, "timestamp": "2025-12-20T07:33:51.055762+00:00", "meta": {"OBJECT_NAME": "GPS BIIF-4  (PRN 27)", "OBJECT_ID": "2013-023A", "EPOCH": "2025-12-19T04:43:12.887616", "MEAN_MOTION": 2.00564719, "ECCENTRICITY": 0.0138305, "INCLINATION": 54.6464, "RA_OF_ASC_NODE": 276.3057, "ARG_OF_PERICENTER": 48.6894, "MEAN_ANOMALY": 312.5202, "EPHEMERIS_TYPE": 0, "CLASSIFICATION_TYPE": "U", "NORAD_CAT_ID": 39166, "ELEMENT_SET_NO": 999, "REV_AT_EPOCH": 9227, "BSTAR": 0, "MEAN_MOTION_DOT": -2.9e-07, "MEAN_MOTION_DDOT": 0}, "tle": {"line1": "1 39166U 13023A   25353.19667694 -.00000029  00000+0  00000+0 0  9990", "line2": "2 39166  54.6464 276.3057 0138305  48.6894 312.5202  2.00564719 92274"}}, "geometry": {"type": "Point", "coordinates": [5.993580399552473, 54.66951516913637]}}, {"type": "Feature", "properties": {"norad_id": 39199, "name": "IRNSS-1A", "group": "gnss", "lat": -6.293247062104011, "lon": -104.5967583148247, "alt_km": 35689.53986448192, "timestamp": "2025-12-20T07:33:51.055776+00:00", "meta": {"OBJECT_NAME": "IRNSS-1A", "OBJECT_ID": "2013-034A", "EPOCH": "2025-12-18T18:41:43.776960", "MEAN_MOTION": 1.00272479, "ECCENTRICITY": 0.0024472, "INCLINATION": 35.3183, "RA_OF_ASC_NODE": 66.4661, "ARG_OF_PERICENTER": 211.0525, "MEAN_ANOMALY": 145.3931, "EPHEMERIS_TYPE": 0, "CLASSIFICATION_TYPE": "U", "NORAD_CAT_ID": 39199, "ELEMENT_SET_NO": 999, "REV_AT_EPOCH": 4555, "BSTAR": 0, "MEAN_MOTION_DOT": 6.5e-07, "MEAN_MOTION_DDOT": 0}, "tle": {"line1": "1 39199U 13034A   25352.77897890  .00000065  00000+0  00000+0 0  9993", "line2": "2 39199  35.3183  66.4661 0024472 211.0525 145.3931  1.00272479 45557"}}, "geometry": {"type": "Point", "coordinates": [-104.5967583148247, -6.293247062104011]}}, {"type": "Feature", "properties": {"norad_id": 39533, "name": "GPS BIIF-5  (PRN 30)", "group": "gnss", "lat": 53.591745476540105, "lon": -111.66776565112681, "alt_km": 20324.661934092157, "timestamp": "2025-12-20T07:33:51.055788+00:00", "meta": {"OBJECT_NAME": "GPS BIIF-5  (PRN 30)", "OBJECT_ID": "2014-008A", "EPOCH": "2025-12-17T04:42:21.782016", "MEAN_MOTION": 2.00574699, "ECCENTRICITY": 0.00793343, "INCLINATION": 53.632, "RA_OF_ASC_NODE": 156.7429, "ARG_OF_PERICENTER": 226.5757, "MEAN_ANOMALY": 132.7662, "EPHEMERIS_TYPE": 0, "CLASSIFICATION_TYPE": "U", "NORAD_CAT_ID": 39533, "ELEMENT_SET_NO": 999, "REV_AT_EPOCH": 8603, "BSTAR": 0, "MEAN_MOTION_DOT": 7.8e-07, "MEAN_MOTION_DDOT": 0}, "tle": {"line1": "1 39533U 14008A   25351.19608544  .00000078  00000+0  00000+0 0  9992", "line2": "2 39533  53.6320 156.7429 0079334 226.5757 132.7662  2.00574699 86034"}}, "geometry": {"type": "Point", "coordinates": [-111.66776565112681, 53.591745476540105]}}, {"type": "Feature", "properties": {"norad_id": 39617, "name": "ASTRA 5B (EGNOS/PRN 123)", "group": "gnss", "lat": -0.05314527527557581, "lon": -133.91986923921752, "alt_km": 35772.8821976094, "timestamp": "2025-12-20T07:33:51.055800+00:00", "meta": {"OBJECT_NAME": "ASTRA 5B (EGNOS/PRN 123)", "OBJECT_ID": "2014-011B", "EPOCH": "2025-12-19T19:52:38.508672", "MEAN_MOTION": 1.00270681, "ECCENTRICITY": 0.0003845, "INCLINATION": 0.0429, "RA_OF_ASC_NODE": 358.0682, "ARG_OF_PERICENTER": 262.2755, "MEAN_ANOMALY": 149.9909, "EPHEMERIS_TYPE": 0, "CLASSIFICATION_TYPE": "U", "NORAD_CAT_ID": 39617, "ELEMENT_SET_NO": 999, "REV_AT_EPOCH": 4286, "BSTAR": 0, "MEAN_MOTION_DOT": 1.61e-06, "MEAN_MOTION_DDOT": 0}, "tle": {"line1": "1 39617U 14011B   25353.82822348  .00000161  00000+0  00000+0 0  9994", "line2": "2 39617   0.0429 358.0682 0003845 262.2755 149.9909  1.00270681 42860"}}, "geometry": {"type": "Point", "coordinates": [-133.91986923921752, -0.05314527527557581]}}]}